start=new Date('2022-11-04T00:00:00.000Z').valueOf();
sats=[{"OBJECT_ID":"2022-114BB","PERIOD":"91.529","FILE":"3644033","CLASSIFICATION_TYPE":"U","ARG_OF_PERICENTER":"12.1692","OBJECT_NAME":"STARLINK-4793","EPHEMERIS_TYPE":"0","SITE":"AFETR","APOAPSIS":"351.409","MEAN_MOTION":"15.73268557","DECAY_DATE":null,"COUNTRY_CODE":"US","TLE_LINE2":"2 53867  53.2155  31.7361 0002741  12.1692   5.3511 15.73268557  1306","GP_ID":"216863702","INCLINATION":"53.2155","EPOCH":"2022-11-03T22:00:00.999936","MEAN_MOTION_DDOT":"0.0000000000000","LAUNCH_DATE":"2022-09-19","TIME_SYSTEM":"UTC","MEAN_ANOMALY":"5.3511","ELEMENT_SET_NO":"999","TLE_LINE1":"1 53867U 22114BB  22307.91667824 -.00064268  00000-0 -45553-3 0  9999","MEAN_MOTION_DOT":"-0.00064268","OBJECT_TYPE":"PAYLOAD","PERIAPSIS":"347.721","CENTER_NAME":"EARTH","NORAD_CAT_ID":"53867","SEMIMAJOR_AXIS":"6727.700","RA_OF_ASC_NODE":"31.7361","BSTAR":"-0.00045553000000","REF_FRAME":"TEME","MEAN_ELEMENT_THEORY":"SGP4","ECCENTRICITY":"0.00027410","REV_AT_EPOCH":"130","RCS_SIZE":"LARGE"},{"SITE":"AFETR","APOAPSIS":"351.336","OBJECT_NAME":"STARLINK-4789","EPHEMERIS_TYPE":"0","ARG_OF_PERICENTER":"15.1133","MEAN_MOTION":"15.73268244","COUNTRY_CODE":"US","TLE_LINE2":"2 53868  53.2151  31.7198 0002631  15.1133  12.1863 15.73268244  1301","DECAY_DATE":null,"FILE":"3644033","OBJECT_ID":"2022-114BC","PERIOD":"91.529","CLASSIFICATION_TYPE":"U","EPOCH":"2022-11-03T22:00:00.999936","LAUNCH_DATE":"2022-09-19","MEAN_MOTION_DDOT":"0.0000000000000","TIME_SYSTEM":"UTC","GP_ID":"216863877","INCLINATION":"53.2151","OBJECT_TYPE":"PAYLOAD","TLE_LINE1":"1 53868U 22114BC  22307.91667824 -.00095375  00000-0 -68070-3 0  9992","MEAN_MOTION_DOT":"-0.00095375","PERIAPSIS":"347.796","CENTER_NAME":"EARTH","MEAN_ANOMALY":"12.1863","ELEMENT_SET_NO":"999","REF_FRAME":"TEME","MEAN_ELEMENT_THEORY":"SGP4","ECCENTRICITY":"0.00026310","RCS_SIZE":"LARGE","REV_AT_EPOCH":"130","NORAD_CAT_ID":"53868","SEMIMAJOR_AXIS":"6727.701","BSTAR":"-0.00068070000000","RA_OF_ASC_NODE":"31.7198"},{"GP_ID":"216864640","INCLINATION":"53.2152","EPOCH":"2022-11-03T22:00:00.999936","MEAN_MOTION_DDOT":"0.0000000000000","LAUNCH_DATE":"2022-09-19","TIME_SYSTEM":"UTC","FILE":"3644033","PERIOD":"91.528","OBJECT_ID":"2022-114BD","CLASSIFICATION_TYPE":"U","APOAPSIS":"351.402","SITE":"AFETR","OBJECT_NAME":"STARLINK-4810","EPHEMERIS_TYPE":"0","ARG_OF_PERICENTER":"10.1954","MEAN_MOTION":"15.73296960","TLE_LINE2":"2 53869  53.2152  31.7321 0002851  10.1954   7.8305 15.73296960  1309","COUNTRY_CODE":"US","DECAY_DATE":null,"SEMIMAJOR_AXIS":"6727.619","NORAD_CAT_ID":"53869","RA_OF_ASC_NODE":"31.7321","BSTAR":"-0.00054040000000","REF_FRAME":"TEME","ECCENTRICITY":"0.00028510","MEAN_ELEMENT_THEORY":"SGP4","RCS_SIZE":"LARGE","REV_AT_EPOCH":"130","MEAN_ANOMALY":"7.8305","ELEMENT_SET_NO":"999","OBJECT_TYPE":"PAYLOAD","MEAN_MOTION_DOT":"-0.00076114","TLE_LINE1":"1 53869U 22114BD  22307.91667824 -.00076114  00000-0 -54040-3 0  9995","PERIAPSIS":"347.566","CENTER_NAME":"EARTH"},{"REF_FRAME":"TEME","RCS_SIZE":"LARGE","REV_AT_EPOCH":"130","ECCENTRICITY":"0.00028940","MEAN_ELEMENT_THEORY":"SGP4","BSTAR":"-0.00074616000000","RA_OF_ASC_NODE":"31.7305","NORAD_CAT_ID":"53870","SEMIMAJOR_AXIS":"6727.702","PERIAPSIS":"347.620","OBJECT_TYPE":"PAYLOAD","MEAN_MOTION_DOT":"-0.00104381","TLE_LINE1":"1 53870U 22114BE  22307.91667824 -.00104381  00000-0 -74616-3 0  9996","CENTER_NAME":"EARTH","ELEMENT_SET_NO":"999","MEAN_ANOMALY":"9.1240","EPOCH":"2022-11-03T22:00:00.999936","TIME_SYSTEM":"UTC","MEAN_MOTION_DDOT":"0.0000000000000","LAUNCH_DATE":"2022-09-19","GP_ID":"216864745","INCLINATION":"53.2160","SITE":"AFETR","APOAPSIS":"351.514","ARG_OF_PERICENTER":"10.8046","OBJECT_NAME":"STARLINK-4732","EPHEMERIS_TYPE":"0","TLE_LINE2":"2 53870  53.2160  31.7305 0002894  10.8046   9.1240 15.73267718  1300","COUNTRY_CODE":"US","DECAY_DATE":null,"MEAN_MOTION":"15.73267718","CLASSIFICATION_TYPE":"U","FILE":"3644033","OBJECT_ID":"2022-114BE","PERIOD":"91.529"},{"FILE":"3644033","PERIOD":"91.531","OBJECT_ID":"2022-114BF","CLASSIFICATION_TYPE":"U","MEAN_MOTION":"15.73242079","COUNTRY_CODE":"US","TLE_LINE2":"2 53871  53.2160  31.7284 0003138  10.9800   9.5557 15.73242079  1306","DECAY_DATE":null,"APOAPSIS":"351.751","SITE":"AFETR","EPHEMERIS_TYPE":"0","OBJECT_NAME":"STARLINK-4740","ARG_OF_PERICENTER":"10.9800","INCLINATION":"53.2160","GP_ID":"216864121","LAUNCH_DATE":"2022-09-19","MEAN_MOTION_DDOT":"0.0000000000000","TIME_SYSTEM":"UTC","EPOCH":"2022-11-03T22:00:00.999936","MEAN_ANOMALY":"9.5557","ELEMENT_SET_NO":"999","CENTER_NAME":"EARTH","OBJECT_TYPE":"PAYLOAD","TLE_LINE1":"1 53871U 22114BF  22307.91667824 -.00065558  00000-0 -46532-3 0  9995","MEAN_MOTION_DOT":"-0.00065558","PERIAPSIS":"347.529","SEMIMAJOR_AXIS":"6727.775","NORAD_CAT_ID":"53871","RA_OF_ASC_NODE":"31.7284","BSTAR":"-0.00046532000000","ECCENTRICITY":"0.00031380","MEAN_ELEMENT_THEORY":"SGP4","REV_AT_EPOCH":"130","RCS_SIZE":"LARGE","REF_FRAME":"TEME"},{"NORAD_CAT_ID":"53886","SEMIMAJOR_AXIS":"6728.422","RA_OF_ASC_NODE":"55.2871","BSTAR":"-0.00350230000000","REF_FRAME":"TEME","MEAN_ELEMENT_THEORY":"SGP4","ECCENTRICITY":"0.00020370","REV_AT_EPOCH":"672","RCS_SIZE":"LARGE","MEAN_ANOMALY":"112.2823","ELEMENT_SET_NO":"999","TLE_LINE1":"1 53886U 22119A   22307.91667824 -.00462469  00000-0 -35023-2 0  9990","MEAN_MOTION_DOT":"-0.00462469","OBJECT_TYPE":"PAYLOAD","PERIAPSIS":"348.917","CENTER_NAME":"EARTH","GP_ID":"216835553","INCLINATION":"53.2161","EPOCH":"2022-11-03T22:00:00.999936","MEAN_MOTION_DDOT":"0.0000000000000","LAUNCH_DATE":"2022-09-24","TIME_SYSTEM":"UTC","PERIOD":"91.544","OBJECT_ID":"2022-119A","FILE":"3643858","CLASSIFICATION_TYPE":"U","ARG_OF_PERICENTER":"29.6381","OBJECT_NAME":"STARLINK-5028","EPHEMERIS_TYPE":"0","SITE":"AFETR","APOAPSIS":"351.658","MEAN_MOTION":"15.73015180","DECAY_DATE":null,"COUNTRY_CODE":"US","TLE_LINE2":"2 53886  53.2161  55.2871 0002037  29.6381 112.2823 15.73015180  6724"},{"FILE":"3643858","PERIOD":"91.536","OBJECT_ID":"2022-119B","CLASSIFICATION_TYPE":"U","MEAN_MOTION":"15.73155057","COUNTRY_CODE":"US","TLE_LINE2":"2 53887  53.2163  55.2839 0002110  20.7603 122.9612 15.73155057  6724","DECAY_DATE":null,"SITE":"AFETR","APOAPSIS":"351.308","ARG_OF_PERICENTER":"20.7603","EPHEMERIS_TYPE":"0","OBJECT_NAME":"STARLINK-5029","INCLINATION":"53.2163","GP_ID":"216835547","LAUNCH_DATE":"2022-09-24","MEAN_MOTION_DDOT":"0.0000000000000","TIME_SYSTEM":"UTC","EPOCH":"2022-11-03T22:00:00.999936","MEAN_ANOMALY":"122.9612","ELEMENT_SET_NO":"999","CENTER_NAME":"EARTH","OBJECT_TYPE":"PAYLOAD","TLE_LINE1":"1 53887U 22119B   22307.91667824 -.00647910  00000-0 -49864-2 0  9995","MEAN_MOTION_DOT":"-0.00647910","PERIAPSIS":"348.469","NORAD_CAT_ID":"53887","SEMIMAJOR_AXIS":"6728.023","BSTAR":"-0.00498640000000","RA_OF_ASC_NODE":"55.2839","MEAN_ELEMENT_THEORY":"SGP4","ECCENTRICITY":"0.00021100","REV_AT_EPOCH":"672","RCS_SIZE":"LARGE","REF_FRAME":"TEME"},{"FILE":"3643858","OBJECT_ID":"2022-119C","PERIOD":"91.541","CLASSIFICATION_TYPE":"U","APOAPSIS":"352.114","SITE":"AFETR","OBJECT_NAME":"STARLINK-5034","ARG_OF_PERICENTER":"340.2220","EPHEMERIS_TYPE":"0","MEAN_MOTION":"15.73071192","TLE_LINE2":"2 53888  53.2167  55.2854 0002953 340.2220 162.2807 15.73071192  6726","COUNTRY_CODE":"US","DECAY_DATE":null,"GP_ID":"216835552","INCLINATION":"53.2167","EPOCH":"2022-11-03T22:00:00.999936","LAUNCH_DATE":"2022-09-24","MEAN_MOTION_DDOT":"0.0000000000000","TIME_SYSTEM":"UTC","MEAN_ANOMALY":"162.2807","ELEMENT_SET_NO":"999","OBJECT_TYPE":"PAYLOAD","TLE_LINE1":"1 53888U 22119C   22307.91667824 -.00518803  00000-0 -39448-2 0  9991","MEAN_MOTION_DOT":"-0.00518803","PERIAPSIS":"348.141","CENTER_NAME":"EARTH","SEMIMAJOR_AXIS":"6728.262","NORAD_CAT_ID":"53888","RA_OF_ASC_NODE":"55.2854","BSTAR":"-0.00394480000000","REF_FRAME":"TEME","MEAN_ELEMENT_THEORY":"SGP4","ECCENTRICITY":"0.00029530","REV_AT_EPOCH":"672","RCS_SIZE":"LARGE"},{"CLASSIFICATION_TYPE":"U","FILE":"3643858","PERIOD":"91.533","OBJECT_ID":"2022-119D","TLE_LINE2":"2 53889  53.2167  55.2863 0002267 334.2375 168.7693 15.73195975  6729","COUNTRY_CODE":"US","DECAY_DATE":null,"MEAN_MOTION":"15.73195975","APOAPSIS":"351.297","SITE":"AFETR","OBJECT_NAME":"STARLINK-5031","EPHEMERIS_TYPE":"0","ARG_OF_PERICENTER":"334.2375","INCLINATION":"53.2167","GP_ID":"216835557","TIME_SYSTEM":"UTC","MEAN_MOTION_DDOT":"0.0000000000000","LAUNCH_DATE":"2022-09-24","EPOCH":"2022-11-03T22:00:00.999936","ELEMENT_SET_NO":"999","MEAN_ANOMALY":"168.7693","CENTER_NAME":"EARTH","PERIAPSIS":"348.246","OBJECT_TYPE":"PAYLOAD","MEAN_MOTION_DOT":"-0.00611309","TLE_LINE1":"1 53889U 22119D   22307.91667824 -.00611309  00000-0 -46757-2 0  9998","BSTAR":"-0.00467570000000","RA_OF_ASC_NODE":"55.2863","NORAD_CAT_ID":"53889","SEMIMAJOR_AXIS":"6727.907","REV_AT_EPOCH":"672","RCS_SIZE":"LARGE","ECCENTRICITY":"0.00022670","MEAN_ELEMENT_THEORY":"SGP4","REF_FRAME":"TEME"},{"MEAN_MOTION_DOT":"-0.00088522","TLE_LINE1":"1 53890U 22119E   22307.91667824 -.00088522  00000-0 -63064-3 0  9996","OBJECT_TYPE":"PAYLOAD","PERIAPSIS":"346.688","CENTER_NAME":"EARTH","MEAN_ANOMALY":"174.8780","ELEMENT_SET_NO":"999","REF_FRAME":"TEME","MEAN_ELEMENT_THEORY":"SGP4","ECCENTRICITY":"0.00042710","REV_AT_EPOCH":"674","RCS_SIZE":"LARGE","NORAD_CAT_ID":"53890","SEMIMAJOR_AXIS":"6727.696","RA_OF_ASC_NODE":"53.7771","BSTAR":"-0.00063064000000","ARG_OF_PERICENTER":"359.1402","OBJECT_NAME":"STARLINK-5050","EPHEMERIS_TYPE":"0","SITE":"AFETR","APOAPSIS":"352.435","MEAN_MOTION":"15.73269726","DECAY_DATE":null,"COUNTRY_CODE":"US","TLE_LINE2":"2 53890  53.2188  53.7771 0004271 359.1402 174.8780 15.73269726  6742","PERIOD":"91.529","OBJECT_ID":"2022-119E","FILE":"3643859","CLASSIFICATION_TYPE":"U","EPOCH":"2022-11-03T22:00:00.999936","LAUNCH_DATE":"2022-09-24","MEAN_MOTION_DDOT":"0.0000000000000","TIME_SYSTEM":"UTC","GP_ID":"216835938","INCLINATION":"53.2188"}];
